{
  "norad_id": 66083,
  "name": "STARLINK-35291",
  "history": [
    {
      "epoch": "2026-03-28T14:40:36.316416",
      "apogee_km": 476.10782827040566,
      "perigee_km": 474.3191037987708,
      "latitude_deg": -48.78306859248701,
      "longitude_deg": 127.00701824016869,
      "semi_major_axis_km": 6853.350466034588,
      "eccentricity": 0.0001305,
      "inclination_deg": 53.1584,
      "raan_deg": 157.7189,
      "arg_perigee_deg": 82.0311,
      "mean_anomaly_deg": 278.0838,
      "mean_motion_rev_day": 15.30200537
    }
  ]
}